{"type":"FeatureCollection", "features":[
{"type":"Feature","geometry":{"type":"Polygon","coordinates":[[[-0.1419938,51.496527,0],[-0.1356424,51.4974888,0],[-0.1239694,51.5009619,0],[-0.1218236,51.5072662,0],[-0.1256002,51.5086017,0],[-0.1283468,51.5114329,0],[-0.1341833,51.510044,0],[-0.1426805,51.5070525,0],[-0.1521648,51.5030456,0],[-0.1461137,51.4971415,0],[-0.1419938,51.496527,0]]]},"properties":{"name":"Westminster"}},
{"type":"Feature","geometry":{"type":"Polygon","coordinates":[[[-0.1218236,51.5072662,0],[-0.1239694,51.5009619,0],[-0.11767,51.5006163,0],[-0.1167258,51.5002155,0],[-0.1157388,51.5006163,0],[-0.1123055,51.4987996,0],[-0.1101598,51.4981851,0],[-0.1044949,51.4987195,0],[-0.10398,51.5109805,0],[-0.1136788,51.5107669,0],[-0.1182708,51.5097519,0],[-0.1218236,51.5072662,0]]]},"properties":{"name":"Waterloo"}},
{"type":"Feature","geometry":{"type":"Polygon","coordinates":[[[-0.10398,51.5109805,0],[-0.1044949,51.4987195,0],[-0.097093,51.498879,0],[-0.0915343,51.4991276,0],[-0.0901407,51.5045692,0],[-0.0882095,51.5063589,0],[-0.0873941,51.5090834,0],[-0.0968355,51.5105658,0],[-0.10398,51.5109805,0]]]},"properties":{"name":"Borough"}},
{"type":"Feature","geometry":{"type":"Polygon","coordinates":[[[-0.0873941,51.5090834,0],[-0.0882095,51.5063589,0],[-0.0901407,51.5045692,0],[-0.0915343,51.4991276,0],[-0.0837773,51.4983127,0],[-0.0796146,51.4976715,0],[-0.0761384,51.4978853,0],[-0.0731343,51.4978853,0],[-0.0604174,51.5094602,0],[-0.0734777,51.5089713,0],[-0.0746793,51.510013,0],[-0.079872,51.5097459,0],[-0.0816252,51.5091527,0],[-0.0868608,51.5097403,0],[-0.0873941,51.5090834,0]]]},"properties":{"name":"London Bridge"}},
{"type":"Feature","geometry":{"type":"Polygon","coordinates":[[[-0.1521648,51.5030456,0],[-0.1426805,51.5070525,0],[-0.1341833,51.510044,0],[-0.1283468,51.5114329,0],[-0.1303207,51.5164864,0],[-0.1419937,51.515338,0],[-0.1489031,51.5143766,0],[-0.1586878,51.5134685,0],[-0.1588594,51.5125338,0],[-0.1569712,51.5099163,0],[-0.1522076,51.5062569,0],[-0.1521968,51.5043804,0],[-0.1521648,51.5030456,0]]]},"properties":{"name":"Mayfair-Soho"}},
{"type":"Feature","geometry":{"type":"Polygon","coordinates":[[[-0.1607275,51.5244136,0],[-0.1598338,51.5217285,0],[-0.1542458,51.5227442,0],[-0.1477349,51.5235592,0],[-0.1433865,51.5240515,0],[-0.1441193,51.5296735,0],[-0.14678,51.5355467,0],[-0.1465655,51.536214,0],[-0.1489258,51.5370616,0],[-0.1518011,51.5375754,0],[-0.1582815,51.5366813,0],[-0.1639891,51.5348793,0],[-0.1677228,51.5301274,0],[-0.1615859,51.5259356,0],[-0.1607275,51.5244136,0]]]},"properties":{"name":"Regent's Park"}},
{"type":"Feature","geometry":{"type":"Polygon","coordinates":[[[-0.149609,51.5401162,0],[-0.1510628,51.5391119,0],[-0.1515752,51.5383295,0],[-0.1518011,51.5375754,0],[-0.1489258,51.5370616,0],[-0.1465655,51.536214,0],[-0.1469163,51.5354383,0],[-0.1442556,51.5295651,0],[-0.1433865,51.5240515,0],[-0.1385371,51.5249928,0],[-0.1307568,51.5274393,0],[-0.1366791,51.5330191,0],[-0.1353469,51.5351772,0],[-0.1324716,51.5354708,0],[-0.133287,51.5384872,0],[-0.1340112,51.5394348,0],[-0.1354435,51.5401554,0],[-0.1362159,51.5405491,0],[-0.1370709,51.5408294,0],[-0.1381297,51.5407427,0],[-0.1386165,51.5408494,0],[-0.1395472,51.5412098,0],[-0.1407435,51.5408895,0],[-0.1416125,51.5412565,0],[-0.1433292,51.541757,0],[-0.1441875,51.5416101,0],[-0.149609,51.5401162,0]]]},"properties":{"name":"Camden"}},
{"type":"Feature","geometry":{"type":"Polygon","coordinates":[[[-0.130509,51.5273907,0],[-0.1385371,51.5249928,0],[-0.1300729,51.5164378,0],[-0.1249581,51.5169417,0],[-0.1207524,51.5189178,0],[-0.1131135,51.521428,0],[-0.1065904,51.521962,0],[-0.1101952,51.5249526,0],[-0.1150018,51.5275158,0],[-0.1154309,51.5294381,0],[-0.11895,51.5286905,0],[-0.1222974,51.5308264,0],[-0.130509,51.5273907,0]]]},"properties":{"name":"Bloomsbury"}},
{"type":"Feature","geometry":{"type":"Polygon","coordinates":[[[-0.1068382,51.5220106,0],[-0.1133613,51.5214766,0],[-0.1210002,51.5189664,0],[-0.1252059,51.5169903,0],[-0.1303207,51.5164864,0],[-0.1283468,51.5114329,0],[-0.1256002,51.5086017,0],[-0.1218236,51.5072662,0],[-0.1182708,51.5097519,0],[-0.1136788,51.5107669,0],[-0.10398,51.5109805,0],[-0.103922,51.5141041,0],[-0.1047803,51.5173623,0],[-0.1068382,51.5220106,0]]]},"properties":{"name":"Covent Garden"}},
{"type":"Feature","geometry":{"type":"Polygon","coordinates":[[[-0.1324716,51.5354708,0],[-0.1353469,51.5351772,0],[-0.1366791,51.5330191,0],[-0.1307568,51.5274393,0],[-0.1225452,51.530875,0],[-0.1191978,51.5287391,0],[-0.1156787,51.5294867,0],[-0.1139748,51.5313457,0],[-0.1147043,51.5348429,0],[-0.1167643,51.5348962,0],[-0.1163351,51.5368983,0],[-0.1174558,51.5429541,0],[-0.1253474,51.5413026,0],[-0.1352879,51.5413766,0],[-0.1356902,51.5402789,0],[-0.133979,51.5394231,0],[-0.133287,51.5384872,0],[-0.1324716,51.5354708,0]]]},"properties":{"name":"King's Cross"}},
{"type":"Feature","geometry":{"type":"Polygon","coordinates":[[[-0.1165975,51.5367349,0],[-0.1167643,51.5348962,0],[-0.1147043,51.5348429,0],[-0.1139748,51.5313457,0],[-0.1058258,51.531903,0],[-0.093547,51.5338884,0],[-0.0863851,51.5372153,0],[-0.0848831,51.5417664,0],[-0.0837133,51.5464003,0],[-0.0930153,51.547191,0],[-0.1031221,51.5463437,0],[-0.1101602,51.5446889,0],[-0.1174558,51.5429541,0],[-0.1165975,51.5367349,0]]]},"properties":{"name":"Islington"}},
{"type":"Feature","geometry":{"type":"Polygon","coordinates":[[[-0.1058258,51.531903,0],[-0.1139748,51.5313457,0],[-0.1156787,51.5294867,0],[-0.1152496,51.5275644,0],[-0.110443,51.5250012,0],[-0.1068382,51.5220106,0],[-0.1062334,51.5201027,0],[-0.1019848,51.5197822,0],[-0.0973928,51.5201027,0],[-0.0970066,51.5218117,0],[-0.0984228,51.5232002,0],[-0.1009119,51.5285403,0],[-0.1023281,51.5297417,0],[-0.1058258,51.531903,0]]]},"properties":{"name":"Clerkenwell"}},
{"type":"Feature","geometry":{"type":"Polygon","coordinates":[[[-0.093547,51.5338884,0],[-0.1058258,51.531903,0],[-0.1009119,51.5285403,0],[-0.0984228,51.5232002,0],[-0.0970066,51.5218117,0],[-0.0973928,51.5201027,0],[-0.0924312,51.5209926,0],[-0.0852643,51.5202983,0],[-0.0829898,51.5197109,0],[-0.0816165,51.5209392,0],[-0.078827,51.5204051,0],[-0.0742351,51.5202182,0],[-0.0755225,51.5223077,0],[-0.0771533,51.5243971,0],[-0.077915,51.5273608,0],[-0.0780116,51.529163,0],[-0.0767048,51.5364727,0],[-0.0841627,51.5374848,0],[-0.0863851,51.5372153,0],[-0.093547,51.5338884,0]]]},"properties":{"name":"Old Street"}},
{"type":"Feature","geometry":{"type":"Polygon","coordinates":[[[-0.0734456,51.5089767,0],[-0.0604174,51.5094602,0],[-0.0608895,51.5111295,0],[-0.061898,51.5158834,0],[-0.0625632,51.5183671,0],[-0.074203,51.5202236,0],[-0.0787949,51.5204105,0],[-0.0815844,51.5209446,0],[-0.0829577,51.5197163,0],[-0.0872824,51.5205568,0],[-0.0886557,51.5172187,0],[-0.0818322,51.5159903,0],[-0.0836776,51.5143345,0],[-0.0860808,51.5109425,0],[-0.0868287,51.5097457,0],[-0.0815931,51.5091581,0],[-0.0798399,51.5097513,0],[-0.0746472,51.5100184,0],[-0.0734456,51.5089767,0]]]},"properties":{"name":"Whitechapel"}},
{"type":"Feature","geometry":{"type":"Polygon","coordinates":[[[-0.1062334,51.5201027,0],[-0.1047803,51.5173623,0],[-0.103922,51.5141041,0],[-0.10398,51.5109805,0],[-0.0968355,51.5105658,0],[-0.0873941,51.5090834,0],[-0.0868608,51.5097403,0],[-0.0837097,51.5143291,0],[-0.0818643,51.5159849,0],[-0.0886878,51.5172133,0],[-0.0873145,51.5205514,0],[-0.0924312,51.5209926,0],[-0.0973928,51.5201027,0],[-0.1019848,51.5197822,0],[-0.1062334,51.5201027,0]]]},"properties":{"name":"City of London"}},
{"type":"Feature","geometry":{"type":"Polygon","coordinates":[[[-0.1586878,51.5134685,0],[-0.1489031,51.5143766,0],[-0.1419937,51.515338,0],[-0.1303207,51.5164864,0],[-0.1345567,51.520834,0],[-0.1385371,51.5249928,0],[-0.1433865,51.5240515,0],[-0.1543407,51.5227298,0],[-0.1568298,51.5223294,0],[-0.1598338,51.5217285,0],[-0.1567439,51.5149856,0],[-0.1594047,51.5144781,0],[-0.1586878,51.5134685,0]]]},"properties":{"name":"Marylebone"}},
{"type":"Feature","geometry":{"type":"LineString","coordinates":[[-0.1514034,51.5294597,0],[-0.1453094,51.5193132,0],[-0.141447,51.5113547,0],[-0.1367263,51.5033414,0]]},"properties":{"name":"Line 1","tessellate":true}},
{"type":"Feature","geometry":{"type":"LineString","coordinates":[[-0.1396446,51.5315955,0],[-0.1453094,51.5193132,0],[-0.1417903,51.5118355,0],[-0.1367263,51.5033414,0]]},"properties":{"name":"Line 2","tessellate":true}},
{"type":"Feature","geometry":{"type":"LineString","coordinates":[[-0.1396446,51.5315955,0],[-0.1241951,51.5230517,0],[-0.1170711,51.5118889,0],[-0.1123504,51.5031811,0]]},"properties":{"name":"Line 3","tessellate":true}},
{"type":"Feature","geometry":{"type":"LineString","coordinates":[[-0.1231651,51.5339447,0],[-0.1241951,51.5230517,0],[-0.116599,51.5110876,0],[-0.1123504,51.5031811,0]]},"properties":{"name":"Line 4","tessellate":true}},
{"type":"Feature","geometry":{"type":"LineString","coordinates":[[-0.0956993,51.5405114,0],[-0.1056556,51.5263092,0],[-0.0971584,51.5134112,0],[-0.0977592,51.5041428,0]]},"properties":{"name":"Line 6","tessellate":true}},
{"type":"Feature","geometry":{"type":"LineString","coordinates":[[-0.0956993,51.5405114,0],[-0.0838546,51.5255615,0],[-0.0779538,51.5133846,0],[-0.0749282,51.5056387,0]]},"properties":{"name":"Line 7","tessellate":true}},
{"type":"Feature","geometry":{"type":"LineString","coordinates":[[-0.0956993,51.5405114,0],[-0.0838546,51.5255615,0],[-0.0971584,51.5134112,0],[-0.0977592,51.5041428,0]]},"properties":{"name":"Line 8","tessellate":true}},
{"type":"Feature","geometry":{"type":"LineString","coordinates":[[-0.1231651,51.5339447,0],[-0.1056556,51.5263092,0],[-0.0971584,51.5134112,0],[-0.0977592,51.5037154,0]]},"properties":{"name":"Line 5","tessellate":true}},
{"type":"Feature","geometry":{"type":"LineString","coordinates":[[-0.1514034,51.5294597,0],[-0.1396446,51.5315955,0],[-0.1231651,51.5339447,0],[-0.0956993,51.5405114,0]]},"properties":{"name":"Line 9","tessellate":true}},
{"type":"Feature","geometry":{"type":"LineString","coordinates":[[-0.1453094,51.5193132,0],[-0.1241951,51.5230517,0],[-0.1056556,51.5263092,0],[-0.0838546,51.5255615,0]]},"properties":{"name":"Line 10","tessellate":true}},
{"type":"Feature","geometry":{"type":"LineString","coordinates":[[-0.1417557,51.5119467,0],[-0.116599,51.5110876,0],[-0.0971584,51.5134112,0],[-0.0779538,51.5133846,0]]},"properties":{"name":"Line 11","tessellate":true}},
{"type":"Feature","geometry":{"type":"LineString","coordinates":[[-0.1367263,51.5033414,0],[-0.116599,51.5110876,0],[-0.0971584,51.5134112,0],[-0.0779538,51.5133846,0]]},"properties":{"name":"Line 12","tessellate":true}},
{"type":"Feature","geometry":{"type":"LineString","coordinates":[[-0.1367263,51.5033414,0],[-0.1124362,51.5035017,0],[-0.0977592,51.5041428,0],[-0.0749282,51.5056387,0]]},"properties":{"name":"Line 13","tessellate":true}}
]}
