{
"type": "FeatureCollection",
"name": "Map",
"features": [
{ "type": "Feature", "properties": { "Name": "CBD" }, "geometry": { "type": "Polygon", "coordinates": [ [ [ 144.9749977, -37.8153091 ], [ 144.9712641, -37.8075619 ], [ 144.9560292, -37.8059004 ], [ 144.955364, -37.8094435 ], [ 144.9565012, -37.8118339 ], [ 144.9514801, -37.8132918 ], [ 144.9549133, -37.821157 ], [ 144.9558789, -37.8230215 ], [ 144.9580679, -37.8219583 ], [ 144.96693, -37.8195387 ], [ 144.971715, -37.8190004 ], [ 144.9744382, -37.8194995 ], [ 144.9749977, -37.8153091 ] ] ] } },
{ "type": "Feature", "properties": { "Name": "Carlton" }, "geometry": { "type": "Polygon", "coordinates": [ [ [ 144.9729948, -37.8080472 ], [ 144.9757414, -37.7927879 ], [ 144.9683599, -37.7921096 ], [ 144.9651842, -37.7933983 ], [ 144.962223, -37.7918722 ], [ 144.9583177, -37.7935679 ], [ 144.9560292, -37.8059004 ], [ 144.9729948, -37.8080472 ] ] ] } },
{ "type": "Feature", "properties": { "Name": "Collingwood" }, "geometry": { "type": "Polygon", "coordinates": [ [ [ 144.9729948, -37.8080472 ], [ 144.991378, -37.8098896 ], [ 144.9939529, -37.794495 ], [ 144.9757414, -37.7927879 ], [ 144.9746197, -37.8007231 ], [ 144.9729948, -37.8080472 ] ] ] } },
{ "type": "Feature", "properties": { "Name": "East Melbourne" }, "geometry": { "type": "Polygon", "coordinates": [ [ [ 144.9712641, -37.8075619 ], [ 144.9749977, -37.8153091 ], [ 144.9744382, -37.8194995 ], [ 144.9762407, -37.8211267 ], [ 144.9789014, -37.8239064 ], [ 144.9817338, -37.8264827 ], [ 144.9862829, -37.8272285 ], [ 144.9879995, -37.8293978 ], [ 144.991378, -37.8098896 ], [ 144.9712641, -37.8075619 ] ] ] } },
{ "type": "Feature", "properties": { "Name": "North Melbourne" }, "geometry": { "type": "Polygon", "coordinates": [ [ [ 144.942136, -37.789511 ], [ 144.938102, -37.7888327 ], [ 144.9362995, -37.792292 ], [ 144.9361279, -37.7985317 ], [ 144.936557, -37.8013802 ], [ 144.9338104, -37.8053813 ], [ 144.9336388, -37.8095857 ], [ 144.9399044, -37.8110775 ], [ 144.9435951, -37.8127049 ], [ 144.9475805, -37.8110998 ], [ 144.9500024, -37.8134503 ], [ 144.9514801, -37.8132918 ], [ 144.9565012, -37.8118339 ], [ 144.9556114, -37.8085686 ], [ 144.9571564, -37.8009054 ], [ 144.942136, -37.789511 ] ] ] } },
{ "type": "Feature", "properties": { "Name": "Docklands" }, "geometry": { "type": "Polygon", "coordinates": [ [ [ 144.9558789, -37.8230215 ], [ 144.9514801, -37.8132918 ], [ 144.9500024, -37.8134503 ], [ 144.9475805, -37.8110998 ], [ 144.9435951, -37.8127049 ], [ 144.9399044, -37.8110775 ], [ 144.9336388, -37.8095857 ], [ 144.932182, -37.8164348 ], [ 144.931667, -37.8219268 ], [ 144.9353148, -37.8246387 ], [ 144.9380614, -37.8257235 ], [ 144.9475028, -37.8258929 ], [ 144.9501206, -37.8266386 ], [ 144.9532606, -37.823729 ], [ 144.9558789, -37.8230215 ] ] ] } },
{ "type": "Feature", "properties": { "Name": "Richmond" }, "geometry": { "type": "Polygon", "coordinates": [ [ [ 144.9879995, -37.8293978 ], [ 144.9912692, -37.8328022 ], [ 144.996419, -37.8340224 ], [ 145.0007105, -37.8333445 ], [ 145.0044012, -37.8307007 ], [ 145.006547, -37.830294 ], [ 145.0100661, -37.811242 ], [ 144.991378, -37.8098896 ], [ 144.9879995, -37.8293978 ] ] ] } },
{ "type": "Feature", "properties": { "Name": "Parkville" }, "geometry": { "type": "Polygon", "coordinates": [ [ [ 144.9571564, -37.8009054 ], [ 144.9604429, -37.7769486 ], [ 144.9370969, -37.7738278 ], [ 144.9375261, -37.7784411 ], [ 144.9400152, -37.7831897 ], [ 144.938102, -37.7888327 ], [ 144.942136, -37.789511 ], [ 144.9571564, -37.8009054 ] ] ] } },
{ "type": "Feature", "properties": { "Name": "Port Melbourne" }, "geometry": { "type": "Polygon", "coordinates": [ [ [ 144.9365594, -37.8250454 ], [ 144.9325013, -37.8227431 ], [ 144.9309563, -37.8218618 ], [ 144.9268364, -37.819794 ], [ 144.9213433, -37.8195566 ], [ 144.9129321, -37.8206416 ], [ 144.9054646, -37.8232855 ], [ 144.9016453, -37.8272854 ], [ 144.8996281, -37.830404 ], [ 144.8979115, -37.8357931 ], [ 144.8987698, -37.8403687 ], [ 144.9064087, -37.8495865 ], [ 144.9102711, -37.8500609 ], [ 144.9193692, -37.8477566 ], [ 144.9149918, -37.842131 ], [ 144.9301838, -37.8428088 ], [ 144.9288964, -37.8480277 ], [ 144.9336171, -37.8482988 ], [ 144.9382519, -37.8432155 ], [ 144.945805, -37.8348103 ], [ 144.9453759, -37.8326411 ], [ 144.9426293, -37.8306751 ], [ 144.9395485, -37.8271008 ], [ 144.9365594, -37.8250454 ] ] ] } },
{ "type": "Feature", "properties": { "Name": "South Melbourne" }, "geometry": { "type": "Polygon", "coordinates": [ [ [ 144.9484658, -37.8476888 ], [ 144.9533581, -37.8409787 ], [ 144.9580943, -37.8398308 ], [ 144.9558199, -37.8356111 ], [ 144.9616134, -37.8339672 ], [ 144.9652183, -37.8328148 ], [ 144.9685227, -37.8308151 ], [ 144.9708831, -37.8302049 ], [ 144.9712622, -37.8299571 ], [ 144.9710913, -37.8249991 ], [ 144.9684727, -37.819313 ], [ 144.9621649, -37.8208973 ], [ 144.9558789, -37.8230215 ], [ 144.9532606, -37.823729 ], [ 144.9498482, -37.8267618 ], [ 144.9459922, -37.8254254 ], [ 144.9380614, -37.8257235 ], [ 144.9453759, -37.8326411 ], [ 144.945805, -37.8348103 ], [ 144.9382519, -37.8432155 ], [ 144.9484658, -37.8476888 ] ] ] } },
{ "type": "Feature", "properties": { "Name": "Abbotsford" }, "geometry": { "type": "Polygon", "coordinates": [ [ [ 144.991378, -37.8098896 ], [ 145.0100661, -37.811242 ], [ 145.0117444, -37.8038018 ], [ 145.0147914, -37.8049886 ], [ 145.0154566, -37.8034119 ], [ 145.0198984, -37.8040052 ], [ 145.0217866, -37.7967486 ], [ 145.0152635, -37.7907122 ], [ 145.0100708, -37.7916618 ], [ 145.0054788, -37.7940357 ], [ 144.9989433, -37.7954863 ], [ 144.9939529, -37.794495 ], [ 144.991378, -37.8098896 ] ] ] } },
{ "type": "Feature", "properties": { "Name": "Gardens" }, "geometry": { "type": "Polygon", "coordinates": [ [ [ 144.9710913, -37.8249991 ], [ 144.9715197, -37.8266352 ], [ 144.9712622, -37.8299571 ], [ 144.9721205, -37.8328043 ], [ 144.9759471, -37.8365432 ], [ 144.9808823, -37.8500654 ], [ 144.9839616, -37.8504011 ], [ 144.9872267, -37.8353124 ], [ 144.9881279, -37.8296181 ], [ 144.9862829, -37.8272285 ], [ 144.9817338, -37.8264827 ], [ 144.9747383, -37.8195503 ], [ 144.971715, -37.8190004 ], [ 144.9684727, -37.819313 ], [ 144.9710913, -37.8249991 ] ] ] } },
{ "type": "Feature", "properties": { "Name": "Albert Park" }, "geometry": { "type": "Polygon", "coordinates": [ [ [ 144.9484658, -37.8476888 ], [ 144.9659548, -37.856982 ], [ 144.9701605, -37.8540002 ], [ 144.9771986, -37.8596248 ], [ 144.9829493, -37.8569142 ], [ 144.9760828, -37.8370557 ], [ 144.9725638, -37.8331918 ], [ 144.9707973, -37.8302727 ], [ 144.9661265, -37.8327851 ], [ 144.9562061, -37.835628 ], [ 144.9580943, -37.8398308 ], [ 144.9533581, -37.8409787 ], [ 144.9515557, -37.8436899 ], [ 144.9484658, -37.8476888 ] ] ] } },
{ "type": "Feature", "properties": { "Name": "South Yarra" }, "geometry": { "type": "Polygon", "coordinates": [ [ [ 144.9881672, -37.8302018 ], [ 144.9839616, -37.8504011 ], [ 144.9933169, -37.8517907 ], [ 145.0019002, -37.8529763 ], [ 145.006547, -37.830294 ], [ 145.0035309, -37.8315577 ], [ 145.0013852, -37.8337269 ], [ 144.9955487, -37.834337 ], [ 144.9909997, -37.8336591 ], [ 144.9881672, -37.8302018 ] ] ] } },
{ "type": "Feature", "properties": { "Name": "St Kilda" }, "geometry": { "type": "Polygon", "coordinates": [ [ [ 144.9701605, -37.8540002 ], [ 144.9659548, -37.856982 ], [ 144.972309, -37.8702205 ], [ 144.9753989, -37.8824154 ], [ 145.0073279, -37.8853961 ], [ 145.0102461, -37.85965 ], [ 145.0107936, -37.8542124 ], [ 145.0019002, -37.8529763 ], [ 144.9808823, -37.8500654 ], [ 144.9829493, -37.8569142 ], [ 144.9771986, -37.8596248 ], [ 144.9701605, -37.8540002 ] ] ] } },
{ "type": "Feature", "properties": { "Name": "Line 16" }, "geometry": { "type": "LineString", "coordinates": [ [ 144.9496352, -37.7871321 ], [ 144.9614797, -37.7970692 ], [ 144.9838817, -37.7994085 ], [ 145.0031078, -37.801104 ] ] } },
{ "type": "Feature", "properties": { "Name": "Line 17" }, "geometry": { "type": "LineString", "coordinates": [ [ 144.9458586, -37.8013075 ], [ 144.9607931, -37.8031385 ], [ 144.9852549, -37.8005614 ], [ 145.0028502, -37.8021891 ] ] } },
{ "type": "Feature", "properties": { "Name": "Line 18" }, "geometry": { "type": "LineString", "coordinates": [ [ 144.9414813, -37.8192771 ], [ 144.9634539, -37.8137172 ], [ 144.9838816, -37.816565 ], [ 144.9964129, -37.8184635 ] ] } },
{ "type": "Feature", "properties": { "Name": "Line 19" }, "geometry": { "type": "LineString", "coordinates": [ [ 144.9459445, -37.8209044 ], [ 144.9591624, -37.8248367 ], [ 144.9763285, -37.8298535 ], [ 144.993838, -37.8356833 ] ] } },
{ "type": "Feature", "properties": { "Name": "Line 20" }, "geometry": { "type": "LineString", "coordinates": [ [ 144.927405, -37.8327007 ], [ 144.9468028, -37.8409705 ], [ 144.9662005, -37.8482906 ], [ 144.9846541, -37.8646226 ] ] } },
{ "type": "Feature", "properties": { "Name": "Line 21" }, "geometry": { "type": "LineString", "coordinates": [ [ 144.9431979, -37.7831977 ], [ 144.9397646, -37.8011718 ], [ 144.9361169, -37.817921 ], [ 144.9326407, -37.8308025 ] ] } },
{ "type": "Feature", "properties": { "Name": "Line 22" }, "geometry": { "type": "LineString", "coordinates": [ [ 144.9462405, -37.7885139 ], [ 144.9527636, -37.8047913 ], [ 144.9589434, -37.8178107 ], [ 144.9582568, -37.8270314 ], [ 144.9524203, -37.8347596 ] ] } },
{ "type": "Feature", "properties": { "Name": "Line 23" }, "geometry": { "type": "LineString", "coordinates": [ [ 144.9686423, -37.8046557 ], [ 144.9676982, -37.8096739 ], [ 144.9788562, -37.8309633 ], [ 144.9676123, -37.8458759 ] ] } },
{ "type": "Feature", "properties": { "Name": "Line 24" }, "geometry": { "type": "LineString", "coordinates": [ [ 144.9832164, -37.8039399 ], [ 144.9802982, -37.831468 ], [ 144.9687968, -37.8459738 ] ] } },
{ "type": "Feature", "properties": { "Name": "Line 25" }, "geometry": { "type": "LineString", "coordinates": [ [ 145.0079356, -37.7997352 ], [ 145.003604, -37.8212243 ], [ 144.9992698, -37.8423064 ], [ 144.9942027, -37.8667108 ] ] } }
]
}
